[{"OBJECT_NAME":"STARLINK-31468","OBJECT_ID":"2024-036A","EPOCH":"2026-03-09T09:42:47.605824","MEAN_MOTION":15.30192121,"ECCENTRICITY":0.00011871,"INCLINATION":53.1605,"RA_OF_ASC_NODE":79.1732,"ARG_OF_PERICENTER":91.3032,"MEAN_ANOMALY":268.8105,"EPHEMERIS_TYPE":0,"CLASSIFICATION_TYPE":"U","NORAD_CAT_ID":58998,"ELEMENT_SET_NO":999,"REV_AT_EPOCH":11529,"BSTAR":0.00010551493,"MEAN_MOTION_DOT":2.766e-5,"MEAN_MOTION_DDOT":0},{"OBJECT_NAME":"FENGYUN 1C DEB","OBJECT_ID":"1999-025BQF","EPOCH":"2026-03-08T19:58:36.101856","MEAN_MOTION":15.15826086,"ECCENTRICITY":0.00798835,"INCLINATION":98.9812,"RA_OF_ASC_NODE":89.4872,"ARG_OF_PERICENTER":83.7388,"MEAN_ANOMALY":277.2932,"EPHEMERIS_TYPE":0,"CLASSIFICATION_TYPE":"U","NORAD_CAT_ID":31327,"ELEMENT_SET_NO":999,"REV_AT_EPOCH":1401,"BSTAR":0.0018254058,"MEAN_MOTION_DOT":0.00037915,"MEAN_MOTION_DDOT":0}]
